KOMPSAT-7               
1 66820U 25279A   25344.33912472  .00004194  00000+0  35621-3 0  9993
2 66820  97.6405 290.2534 0009446 228.7965 131.2444 14.98383323  1297
STARLINK-35966          
1 66821U 25280A   25344.66668980 -.01557078  00000+0 -67613-2 0  9996
2 66821  69.9939 204.7907 0003913 271.1294 158.5043 15.87163122  2566
STARLINK-35958          
1 66822U 25280B   25344.66668980 -.01558020  00000+0 -67524-2 0  9996
2 66822  69.9939 204.7890 0003914 271.5252 159.7958 15.87203288  2563
STARLINK-35957          
1 66823U 25280C   25344.66668980 -.01561515  00000+0 -67558-2 0  9997
2 66823  69.9938 204.7867 0003928 271.3861 161.7087 15.87244205  2566
STARLINK-35896          
1 66824U 25280D   25344.75002315 -.01595429  00000+0 -70024-2 0  9995
2 66824  69.9936 204.5440 0003777 269.0036 281.9492 15.87016307  2587
STARLINK-35476          
1 66825U 25280E   25344.75002315 -.01601430  00000+0 -70194-2 0  9994
2 66825  69.9936 204.5418 0003729 270.4103 282.4783 15.87054454  2439
STARLINK-35898          
1 66826U 25280F   25344.75002315 -.01602116  00000+0 -70080-2 0  9991
2 66826  69.9935 204.5397 0003795 269.5275 284.9348 15.87096157  2583
STARLINK-35959          
1 66827U 25280G   25344.75002315 -.01609866  00000+0 -70318-2 0  9995
2 66827  69.9933 204.5376 0003795 269.3010 287.0125 15.87138781  2581
STARLINK-35982          
1 66828U 25280H   25344.75002315 -.01620676  00000+0 -70591-2 0  9991
2 66828  69.9934 204.5330 0003751 270.7247 289.5054 15.87215168  2586
STARLINK-36084          
1 66829U 25280J   25344.75002315 -.01615030  00000+0 -70441-2 0  9994
2 66829  69.9933 204.5351 0003810 271.3474 286.9189 15.87176966  2429
STARLINK-35881          
1 66830U 25280K   25344.75002315 -.01628378  00000+0 -70807-2 0  9991
2 66830  69.9930 204.5307 0003676 269.9668 291.7888 15.87264190  2581
STARLINK-35788          
1 66831U 25280L   25344.75002315 -.01630974  00000+0 -70780-2 0  9997
2 66831  69.9937 204.5293 0003769 268.9515 294.3620 15.87306963  2584
